{
    "links": {
        "self": "http://www.neowsapp.com/rest/v1/neo/3727343?api_key=iIulBulltgU6a56xZRHN4H3l9WmuAYTsLGpBGhQ2"
    },
    "id": "3727343",
    "neo_reference_id": "3727343",
    "name": "(2015 RN82)",
    "designation": "2015 RN82",
    "nasa_jpl_url": "http://ssd.jpl.nasa.gov/sbdb.cgi?sstr=3727343",
    "absolute_magnitude_h": 23.7,
    "estimated_diameter": {
        "kilometers": {
            "estimated_diameter_min": 0.0483676488,
            "estimated_diameter_max": 0.1081533507
        },
        "meters": {
            "estimated_diameter_min": 48.3676488219,
            "estimated_diameter_max": 108.1533506775
        },
        "miles": {
            "estimated_diameter_min": 0.0300542543,
            "estimated_diameter_max": 0.0672033557
        },
        "feet": {
            "estimated_diameter_min": 158.6865169607,
            "estimated_diameter_max": 354.8338390368
        }
    },
    "is_potentially_hazardous_asteroid": false,
    "close_approach_data": [
        {
            "close_approach_date": "1979-12-26",
            "close_approach_date_full": "1979-Dec-26 08:22",
            "epoch_date_close_approach": 315044520000,
            "relative_velocity": {
                "kilometers_per_second": "5.9208481796",
                "kilometers_per_hour": "21315.0534466124",
                "miles_per_hour": "13244.3452929798"
            },
            "miss_distance": {
                "astronomical": "0.7852748463",
                "lunar": "305.4719152107",
                "kilometers": "117475444.371057381",
                "miles": "72995856.2693426178"
            },
            "orbiting_body": "Juptr"
        },
        {
            "close_approach_date": "1992-05-02",
            "close_approach_date_full": "1992-May-02 20:19",
            "epoch_date_close_approach": 704837940000,
            "relative_velocity": {
                "kilometers_per_second": "5.8453588361",
                "kilometers_per_hour": "21043.2918101276",
                "miles_per_hour": "13075.4831805762"
            },
            "miss_distance": {
                "astronomical": "0.7138791481",
                "lunar": "277.6989886109",
                "kilometers": "106794799.993174547",
                "miles": "66359211.5982288686"
            },
            "orbiting_body": "Juptr"
        },
        {
            "close_approach_date": "2015-08-13",
            "close_approach_date_full": "2015-Aug-13 08:06",
            "epoch_date_close_approach": 1439453160000,
            "relative_velocity": {
                "kilometers_per_second": "9.0632504179",
                "kilometers_per_hour": "32627.7015045058",
                "miles_per_hour": "20273.5848598414"
            },
            "miss_distance": {
                "astronomical": "0.1285547065",
                "lunar": "50.0077808285",
                "kilometers": "19231510.270875155",
                "miles": "11949906.357800939"
            },
            "orbiting_body": "Earth"
        }
    ],
    "orbital_data": {
        "orbit_id": "7",
        "orbit_determination_date": "2017-04-06 08:32:00",
        "first_observation_date": "2015-09-09",
        "last_observation_date": "2015-10-13",
        "data_arc_in_days": 34,
        "observations_used": 23,
        "orbit_uncertainty": "7",
        "minimum_orbit_intersection": ".0801195",
        "jupiter_tisserand_invariant": "2.888",
        "epoch_osculation": "2459000.5",
        "eccentricity": ".640803155876674",
        "semi_major_axis": "3.029879518078585",
        "inclination": "1.744140542915466",
        "ascending_node_longitude": "350.1774328029977",
        "orbital_period": "1926.355626863041",
        "perihelion_distance": "1.088323160967732",
        "perihelion_argument": "350.1185067365051",
        "aphelion_distance": "4.971435875189439",
        "perihelion_time": "2459186.369992200782",
        "mean_anomaly": "325.2643591561306",
        "mean_motion": ".1868813810803145",
        "equinox": "J2000",
        "orbit_class": {
            "orbit_class_type": "AMO",
            "orbit_class_description": "Near-Earth asteroid orbits similar to that of 1221 Amor",
            "orbit_class_range": "1.017 AU < q (perihelion) < 1.3 AU"
        }
    },
    "is_sentry_object": false
}